
    
   ***************************************************************************
   *  spaceflight.nasa.gov will be taken offline by October 2020             *
   *  Do you use any data hosted on this site?                               *
   *  Please let us know how you use the data at the survey link below       *
   *                                                                         *
   *     https://www.surveymonkey.com/r/KRLJMCN                              *
   *                                                                         *
   ***************************************************************************

   ISS  TRAJECTORY DATA
 
   Lift off time (UTC)  :  N/A
   Area (sq ft)  :  16464.4774
   Drag Coefficient (Cd)  :   2.00
   Monthly MSFC 50% solar flux (F10.7-jansky)  :   72.7
   Monthly MSFC 50% earth geomagnetic index (Kp)  :   1.475
   ET - UTC  (sec) :   68.18
   UT1 - UTC (sec) :    0.00
 
 
   Maneuvers contained within the current ephemeris are as follows:
 
 
   IMPULSIVE TIG (GMT)   M50 DVx(FPS)      LVLH DVx(FPS)      DVmag(FPS) 
   IMPULSIVE TIG (MET)   M50 DVy(FPS)      LVLH DVy(FPS)      Invar Sph HA
   DT                    M50 DVz(FPS)      LVLH DVz(FPS)      Invar Sph HP 
   ------------------------------------------------------------------------
   249/11:15:00.000           0.0               0.0              0.0    
   N/A                        0.0               0.0              229.1  
   000/00:00:00.000           0.0               0.0              221.8  
   
   253/10:08:00.000           0.0               0.0              0.0    
   N/A                        0.0               0.0              229.3  
   000/00:00:00.000           0.0               0.0              221.8  
   
   254/20:33:53.536           0.4               1.4              1.4    
   N/A                       -1.4               0.1              229.4  
   000/00:03:43.072          -0.1              -0.0              222.4  
   
 
 
    Coasting Arc #1 (Orbit 399)
    ---------------------------------------
 
    Vector Time (GMT): 2020/246/12:00:00.000
    Vector Time (MET): N/A
    Weight (LBS)     : 922462.6
 
              M50 Cartesian                         M50 Keplerian  
    -----------------------------------       --------------------------------
     X    =        4146439.05                 A    =         6792917.76  meter
     Y    =        1978483.61  meter          E    =           .0006976
     Z    =        4999048.67                 I    =           51.40779
     XDOT =      -5018.715262                 Wp   =          114.94336
     YDOT =       5433.267967  meter/sec      RA   =          325.23733  deg
     ZDOT =       2007.324474                 TA   =          315.45005
                                              MA   =          315.50611
                                              Ha   =            229.106  n.mi
                                              Hp   =            221.834
 
              M50 Cartesian                         J2K Cartesian  
    -----------------------------------       --------------------------------
     X    =       13603802.65                 X    =         4099724.74
     Y    =        6491087.95  feet           Y    =         2024591.16  meter
     Z    =       16401078.31                 Z    =         5019076.55
     XDOT =     -16465.601253                 XDOT =       -5088.848978
     YDOT =      17825.682308  feet/sec       YDOT =        5376.753075  meter/sec
     ZDOT =       6585.710218                 ZDOT =        1982.775247
 
              TDR Cartesian                         TDR Cartesian  
    -----------------------------------       --------------------------------
     X    =      -10678171.47                 X    =        -3254706.67
     Y    =      -10494696.92  feet           Y    =        -3198783.62  meter
     Z    =       16493363.20                 Z    =         5027177.10
     XDOT =      20610.287340                 XDOT =        6282.015581
     YDOT =     -10772.885399  feet/sec       YDOT =       -3283.575470  meter/sec
     ZDOT =       6472.181836                 ZDOT =        1972.721024
  
  
    The mean element set is posted at the UTC for which position is
    just north of the next ascending node relative to the above
    vector time
 
 
    TWO LINE MEAN ELEMENT SET
  
    ISS
    1 25544U 98067A   20246.55183427  .00016717  00000-0  10270-3 0  9006
    2 25544  51.6452 325.6138 0001476  80.3768 279.7549 15.49236240  4006
  
  
    Satellite: ISS
    Catalog Number: 25544
    Epoch time:      20246.55183427   =   yrday.fracday
    Element set:     900
    Inclination:       51.6452  deg
    RA of node:       325.6138  deg
    Eccentricity:     .0001476     
    Arg of perigee:    80.3768  deg
    Mean anomaly:     279.7549  deg
    Mean motion:   15.49236240  rev/day
    Decay rate:    1.67170E-04  rev/day^2
    Epoch rev:             400
    Checksum:              306
 
 
    Coasting Arc #2 (Orbit 414)
    ---------------------------------------
 
    Vector Time (GMT): 2020/247/12:00:00.000
    Vector Time (MET): N/A
    Weight (LBS)     : 922462.6
 
              M50 Cartesian                         M50 Keplerian  
    -----------------------------------       --------------------------------
     X    =       -4245763.27                 A    =         6792947.74  meter
     Y    =       -1702075.27  meter          E    =           .0014534
     Z    =       -5035309.12                 I    =           51.37907
     XDOT =       4596.075351                 Wp   =           76.07268
     YDOT =      -5807.135072  meter/sec      RA   =          320.27333  deg
     ZDOT =      -1913.671515                 TA   =          175.25823
                                              MA   =          175.24445
                                              Ha   =            229.334  n.mi
                                              Hp   =            221.732
 
              M50 Cartesian                         J2K Cartesian  
    -----------------------------------       --------------------------------
     X    =      -13929669.53                 X    =        -4201956.24
     Y    =       -5584236.46  feet           Y    =        -1749309.85  meter
     Z    =      -16520043.04                 Z    =        -5055826.61
     XDOT =      15078.987371                 XDOT =        4669.966305
     YDOT =     -19052.280420  feet/sec       YDOT =       -5755.325449  meter/sec
     ZDOT =      -6278.449851                 ZDOT =       -1891.165972
 
              TDR Cartesian                         TDR Cartesian  
    -----------------------------------       --------------------------------
     X    =       11444108.59                 X    =         3488164.30
     Y    =        9545615.20  feet           Y    =         2909503.51  meter
     Z    =      -16614596.63                 Z    =        -5064129.05
     XDOT =     -19530.990495                 XDOT =       -5953.045903
     YDOT =      12675.749244  feet/sec       YDOT =        3863.568370  meter/sec
     ZDOT =      -6174.350387                 ZDOT =       -1881.941998
  
  
    The mean element set is posted at the UTC for which position is
    just north of the next ascending node relative to the above
    vector time
 
 
    TWO LINE MEAN ELEMENT SET
  
    ISS
    1 25544U 98067A   20247.51943139  .00016717  00000-0  10270-3 0  9018
    2 25544  51.6439 320.8269 0001544  80.8223 279.3102 15.49189967  4150
  
  
    Satellite: ISS
    Catalog Number: 25544
    Epoch time:      20247.51943139   =   yrday.fracday
    Element set:     901
    Inclination:       51.6439  deg
    RA of node:       320.8269  deg
    Eccentricity:     .0001544     
    Arg of perigee:    80.8223  deg
    Mean anomaly:     279.3102  deg
    Mean motion:   15.49189967  rev/day
    Decay rate:    1.67170E-04  rev/day^2
    Epoch rev:             415
    Checksum:              312
 
 
    Coasting Arc #3 (Orbit 430)
    ---------------------------------------
 
    Vector Time (GMT): 2020/248/12:00:00.000
    Vector Time (MET): N/A
    Weight (LBS)     : 922462.6
 
              M50 Cartesian                         M50 Keplerian  
    -----------------------------------       --------------------------------
     X    =        4318540.85                 A    =         6792720.87  meter
     Y    =        1404643.75  meter          E    =           .0006705
     Z    =        5047087.41                 I    =           51.35318
     XDOT =      -4155.681721                 Wp   =          115.29927
     YDOT =       6173.192348  meter/sec      RA   =          315.30730  deg
     ZDOT =       1833.035670                 TA   =          316.84200
                                              MA   =          316.89454
                                              Ha   =            229.147  n.mi
                                              Hp   =            221.797
 
              M50 Cartesian                         J2K Cartesian  
    -----------------------------------       --------------------------------
     X    =       14168441.10                 X    =         4277997.05
     Y    =        4608411.27  feet           Y    =         1452710.45  meter
     Z    =       16558685.73                 Z    =         5067966.46
     XDOT =     -13634.126380                 XDOT =       -4233.307130
     YDOT =      20253.255735  feet/sec       YDOT =        6126.286642  meter/sec
     ZDOT =       6013.896556                 ZDOT =        1812.660149
 
